CTC2_L_00324001-01
1 15128U 24216VE  26037.47793981  .00000000  00000+0  00000-0 0  9997
2 15128 100.0000   0.0000 0000000   0.0000   0.0000 13.69880581    10
CTC2_L_00324001-02
1 15129U 25474AZ  26037.47793981  .00000000  00000+0  00000-0 0  9995
2 15129 100.0000   0.0000 0000000   0.0000  90.0000 13.69880581    10
CTC2_L_00324001-03
1 15130U 25261YE  26037.47793981  .00000000  00000+0  00000-0 0  9991
2 15130 100.0000   0.0000 0000000   0.0000 180.0000 13.69880581    12
CTC2_L_00324001-04
1 15131U 23226DF  26037.47793981  .00000000  00000+0  00000-0 0  9991
2 15131 100.0000   0.0000 0000000   0.0000 270.0000 13.69880581    13
CTC2_L_00324002-01
1 15132U 26339JD  26037.47793981  .00000000  00000+0  00000-0 0  9990
2 15132 100.0000  12.0000 0000000   0.0000  12.0000 13.69880581    11
CTC2_L_00324002-02
1 15133U 24958MK  26037.47793981  .00000000  00000+0  00000-0 0  9996
2 15133 100.0000  12.0000 0000000   0.0000 102.0000 13.69880581    12
CTC2_L_00324002-03
1 15134U 22428WA  26037.47793981  .00000000  00000+0  00000-0 0  9997
2 15134 100.0000  12.0000 0000000   0.0000 192.0000 13.69880581    12
CTC2_L_00324002-04
1 15135U 22488HO  26037.47793981  .00000000  00000+0  00000-0 0  9994
2 15135 100.0000  12.0000 0000000   0.0000 282.0000 13.69880581    13
CTC2_L_00324003-01
1 15136U 25012SL  26037.47793981  .00000000  00000+0  00000-0 0  9991
2 15136 100.0000  24.0000 0000000   0.0000  24.0000 13.69880581    11
CTC2_L_00324003-02
1 15137U 26217KQ  26037.47793981  .00000000  00000+0  00000-0 0  9990
2 15137 100.0000  24.0000 0000000   0.0000 114.0000 13.69880581    12
CTC2_L_00324003-03
1 15138U 24870RG  26037.47793981  .00000000  00000+0  00000-0 0  9994
2 15138 100.0000  24.0000 0000000   0.0000 204.0000 13.69880581    13
CTC2_L_00324003-04
1 15139U 23697AJ  26037.47793981  .00000000  00000+0  00000-0 0  9991
2 15139 100.0000  24.0000 0000000   0.0000 294.0000 13.69880581    13
CTC2_L_00324004-01
1 15140U 23847HS  26037.47793981  .00000000  00000+0  00000-0 0  9990
2 15140 100.0000  36.0000 0000000   0.0000  36.0000 13.69880581    12
CTC2_L_00324004-02
1 15141U 22746RZ  26037.47793981  .00000000  00000+0  00000-0 0  9998
2 15141 100.0000  36.0000 0000000   0.0000 126.0000 13.69880581    13
CTC2_L_00324004-03
1 15142U 26556QQ  26037.47793981  .00000000  00000+0  00000-0 0  9992
2 15142 100.0000  36.0000 0000000   0.0000 216.0000 13.69880581    14
CTC2_L_00324004-04
1 15143U 24102BK  26037.47793981  .00000000  00000+0  00000-0 0  9998
2 15143 100.0000  36.0000 0000000   0.0000 306.0000 13.69880581    15
CTC2_L_00324005-01
1 15144U 25936MQ  26037.47793981  .00000000  00000+0  00000-0 0  9995
2 15144 100.0000  48.0000 0000000   0.0000  48.0000 13.69880581    12
CTC2_L_00324005-02
1 15145U 25835FP  26037.47793981  .00000000  00000+0  00000-0 0  9994
2 15145 100.0000  48.0000 0000000   0.0000 138.0000 13.69880581    13
CTC2_L_00324005-03
1 15146U 26841IW  26037.47793981  .00000000  00000+0  00000-0 0  9993
2 15146 100.0000  48.0000 0000000   0.0000 228.0000 13.69880581    14
CTC2_L_00324005-04
1 15147U 25250KJ  26037.47793981  .00000000  00000+0  00000-0 0  9997
2 15147 100.0000  48.0000 0000000   0.0000 318.0000 13.69880581    15
CTC2_L_00324006-01
1 15148U 22170LD  26037.47793981  .00000000  00000+0  00000-0 0  9996
2 15148 100.0000  60.0000 0000000   0.0000  60.0000 13.69880581    14
CTC2_L_00324006-02
1 15149U 23084KQ  26037.47793981  .00000000  00000+0  00000-0 0  9992
2 15149 100.0000  60.0000 0000000   0.0000 150.0000 13.69880581    15
CTC2_L_00324006-03
1 15150U 23145ZV  26037.47793981  .00000000  00000+0  00000-0 0  9992
2 15150 100.0000  60.0000 0000000   0.0000 240.0000 13.69880581    17
CTC2_L_00324006-04
1 15151U 26698DQ  26037.47793981  .00000000  00000+0  00000-0 0  9999
2 15151 100.0000  60.0000 0000000   0.0000 330.0000 13.69880581    18
CTC2_L_00324007-01
1 15152U 22329EZ  26037.47793981  .00000000  00000+0  00000-0 0  9997
2 15152 100.0000  72.0000 0000000   0.0000  72.0000 13.69880581    15
CTC2_L_00324007-02
1 15153U 24101SY  26037.47793981  .00000000  00000+0  00000-0 0  9998
2 15153 100.0000  72.0000 0000000   0.0000 162.0000 13.69880581    16
CTC2_L_00324007-03
1 15154U 23979PG  26037.47793981  .00000000  00000+0  00000-0 0  9991
2 15154 100.0000  72.0000 0000000   0.0000 252.0000 13.69880581    17
CTC2_L_00324007-04
1 15155U 24229VZ  26037.47793981  .00000000  00000+0  00000-0 0  9991
2 15155 100.0000  72.0000 0000000   0.0000 342.0000 13.69880581    18
CTC2_L_00324008-01
1 15156U 24670BK  26037.47793981  .00000000  00000+0  00000-0 0  9992
2 15156 100.0000  84.0000 0000000   0.0000  84.0000 13.69880581    15
CTC2_L_00324008-02
1 15157U 26466FD  26037.47793981  .00000000  00000+0  00000-0 0  9998
2 15157 100.0000  84.0000 0000000   0.0000 174.0000 13.69880581    16
CTC2_L_00324008-03
1 15158U 26517U   26037.47793981  .00000000  00000+0  00000-0 0  9996
2 15158 100.0000  84.0000 0000000   0.0000 264.0000 13.69880581    17
CTC2_L_00324008-04
1 15159U 22174UV  26037.47793981  .00000000  00000+0  00000-0 0  9992
2 15159 100.0000  84.0000 0000000   0.0000 354.0000 13.69880581    18
CTC2_L_00324009-01
1 15160U 25461TV  26037.47793981  .00000000  00000+0  00000-0 0  9996
2 15160 100.0000  96.0000 0000000   0.0000  96.0000 13.69880581    16
CTC2_L_00324009-02
1 15161U 25885YJ  26037.47793981  .00000000  00000+0  00000-0 0  9997
2 15161 100.0000  96.0000 0000000   0.0000 186.0000 13.69880581    17
CTC2_L_00324009-03
1 15162U 26661IK  26037.47793981  .00000000  00000+0  00000-0 0  9991
2 15162 100.0000  96.0000 0000000   0.0000 276.0000 13.69880581    18
CTC2_L_00324009-04
1 15163U 25007QN  26037.47793981  .00000000  00000+0  00000-0 0  9995
2 15163 100.0000  96.0000 0000000   0.0000   6.0000 13.69880581    10
CTC2_L_00324010-01
1 15164U 25380TO  26037.47793981  .00000000  00000+0  00000-0 0  9990
2 15164 100.0000 108.0000 0000000   0.0000 108.0000 13.69880581    18
CTC2_L_00324010-02
1 15165U 22251RV  26037.47793981  .00000000  00000+0  00000-0 0  9995
2 15165 100.0000 108.0000 0000000   0.0000 198.0000 13.69880581    18
CTC2_L_00324010-03
1 15166U 24877DH  26037.47793981  .00000000  00000+0  00000-0 0  9992
2 15166 100.0000 108.0000 0000000   0.0000 288.0000 13.69880581    19
CTC2_L_00324010-04
1 15167U 25021CL  26037.47793981  .00000000  00000+0  00000-0 0  9995
2 15167 100.0000 108.0000 0000000   0.0000  18.0000 13.69880581    11
CTC2_L_00324011-01
1 15168U 24458UB  26037.47793981  .00000000  00000+0  00000-0 0  9999
2 15168 100.0000 120.0000 0000000   0.0000 120.0000 13.69880581    10
CTC2_L_00324011-02
1 15169U 25878VG  26037.47793981  .00000000  00000+0  00000-0 0  9997
2 15169 100.0000 120.0000 0000000   0.0000 210.0000 13.69880581    11
CTC2_L_00324011-03
1 15170U 25413PU  26037.47793981  .00000000  00000+0  00000-0 0  9994
2 15170 100.0000 120.0000 0000000   0.0000 300.0000 13.69880581    13
CTC2_L_00324011-04
1 15171U 22630SH  26037.47793981  .00000000  00000+0  00000-0 0  9993
2 15171 100.0000 120.0000 0000000   0.0000  30.0000 13.69880581    14
CTC2_L_00324012-01
1 15172U 25957HK  26037.47793981  .00000000  00000+0  00000-0 0  9999
2 15172 100.0000 132.0000 0000000   0.0000 132.0000 13.69880581    11
CTC2_L_00324012-02
1 15173U 25611FD  26037.47793981  .00000000  00000+0  00000-0 0  9997
2 15173 100.0000 132.0000 0000000   0.0000 222.0000 13.69880581    12
CTC2_L_00324012-03
1 15174U 23415YS  26037.47793981  .00000000  00000+0  00000-0 0  9998
2 15174 100.0000 132.0000 0000000   0.0000 312.0000 13.69880581    13
CTC2_L_00324012-04
1 15175U 25945ES  26037.47793981  .00000000  00000+0  00000-0 0  9999
2 15175 100.0000 132.0000 0000000   0.0000  42.0000 13.69880581    14
CTC2_L_00324013-01
1 15176U 23617WB  26037.47793981  .00000000  00000+0  00000-0 0  9994
2 15176 100.0000 144.0000 0000000   0.0000 144.0000 13.69880581    11
CTC2_L_00324013-02
1 15177U 22263PO  26037.47793981  .00000000  00000+0  00000-0 0  9991
2 15177 100.0000 144.0000 0000000   0.0000 234.0000 13.69880581    12
CTC2_L_00324013-03
1 15178U 25717TF  26037.47793981  .00000000  00000+0  00000-0 0  9999
2 15178 100.0000 144.0000 0000000   0.0000 324.0000 13.69880581    13
CTC2_L_00324013-04
1 15179U 22706WI  26037.47793981  .00000000  00000+0  00000-0 0  9995
2 15179 100.0000 144.0000 0000000   0.0000  54.0000 13.69880581    14
CTC2_L_00324014-01
1 15180U 23116RN  26037.47793981  .00000000  00000+0  00000-0 0  9993
2 15180 100.0000 156.0000 0000000   0.0000 156.0000 13.69880581    12
CTC2_L_00324014-02
1 15181U 23054NW  26037.47793981  .00000000  00000+0  00000-0 0  9995
2 15181 100.0000 156.0000 0000000   0.0000 246.0000 13.69880581    13
CTC2_L_00324014-03
1 15182U 22498CU  26037.47793981  .00000000  00000+0  00000-0 0  9997
2 15182 100.0000 156.0000 0000000   0.0000 336.0000 13.69880581    14
CTC2_L_00324014-04
1 15183U 22899JE  26037.47793981  .00000000  00000+0  00000-0 0  9993
2 15183 100.0000 156.0000 0000000   0.0000  66.0000 13.69880581    15
CTC2_L_00324015-01
1 15184U 26921KB  26037.47793981  .00000000  00000+0  00000-0 0  9994
2 15184 100.0000 168.0000 0000000   0.0000 168.0000 13.69880581    12
CTC2_L_00324015-02
1 15185U 23172FS  26037.47793981  .00000000  00000+0  00000-0 0  9990
2 15185 100.0000 168.0000 0000000   0.0000 258.0000 13.69880581    13
CTC2_L_00324015-03
1 15186U 26250BF  26037.47793981  .00000000  00000+0  00000-0 0  9991
2 15186 100.0000 168.0000 0000000   0.0000 348.0000 13.69880581    14
CTC2_L_00324015-04
1 15187U 25530HF  26037.47793981  .00000000  00000+0  00000-0 0  9992
2 15187 100.0000 168.0000 0000000   0.0000  78.0000 13.69880581    15
CTC2_L_00324016-01
1 15188U 23177TD  26037.47793981  .00000000  00000+0  00000-0 0  9998
2 15188 100.0000 180.0000 0000000   0.0000 180.0000 13.69880581    14
CTC2_L_00324016-02
1 15189U 24782GK  26037.47793981  .00000000  00000+0  00000-0 0  9992
2 15189 100.0000 180.0000 0000000   0.0000 270.0000 13.69880581    15
